start=new Date('2022-02-13T00:00:00.000Z').valueOf();
sats=[{"ARG_OF_PERICENTER":"24.1226","OBJECT_NAME":"STARLINK-3357","APOAPSIS":"351.718","CLASSIFICATION_TYPE":"U","FILE":"3298493","EPHEMERIS_TYPE":"0","PERIAPSIS":"348.347","TLE_LINE1":"1 51150U 22005AY  22043.58334491  .00018637  00000-0  13746-3 0  9998","EPOCH":"2022-02-12T14:00:01.000224","ECCENTRICITY":"0.00025050","TLE_LINE2":"2 51150  53.2169 153.0118 0002505  24.1226 227.4257 15.73104355  3734","SEMIMAJOR_AXIS":"6728.168","CENTER_NAME":"EARTH","MEAN_ANOMALY":"227.4257","LAUNCH_DATE":"2022-01-19","REF_FRAME":"TEME","TIME_SYSTEM":"UTC","MEAN_MOTION":"15.73104355","ELEMENT_SET_NO":"999","PERIOD":"91.539","SITE":"AFETR","INCLINATION":"53.2169","REV_AT_EPOCH":"373","BSTAR":"0.00013746000000","OBJECT_ID":"2022-005AY","MEAN_MOTION_DDOT":"0.0000000000000","NORAD_CAT_ID":"51150","DECAY_DATE":null,"MEAN_MOTION_DOT":"0.00018637","GP_ID":"195823731","RCS_SIZE":"LARGE","OBJECT_TYPE":"PAYLOAD","COUNTRY_CODE":"US","MEAN_ELEMENT_THEORY":"SGP4","RA_OF_ASC_NODE":"153.0118"},{"MEAN_ELEMENT_THEORY":"SGP4","COUNTRY_CODE":"US","OBJECT_TYPE":"PAYLOAD","RA_OF_ASC_NODE":"152.9993","DECAY_DATE":null,"NORAD_CAT_ID":"51151","RCS_SIZE":"LARGE","GP_ID":"195823905","MEAN_MOTION_DOT":"-0.00002562","MEAN_MOTION_DDOT":"0.0000000000000","OBJECT_ID":"2022-005AZ","BSTAR":"-0.00001389100000","PERIOD":"91.539","ELEMENT_SET_NO":"999","MEAN_MOTION":"15.73108160","REV_AT_EPOCH":"373","INCLINATION":"53.2179","SITE":"AFETR","REF_FRAME":"TEME","LAUNCH_DATE":"2022-01-19","MEAN_ANOMALY":"235.8076","TLE_LINE2":"2 51151  53.2179 152.9993 0002389  20.1683 235.8076 15.73108160  3738","SEMIMAJOR_AXIS":"6728.157","CENTER_NAME":"EARTH","TIME_SYSTEM":"UTC","EPOCH":"2022-02-12T14:00:01.000224","TLE_LINE1":"1 51151U 22005AZ  22043.58334491 -.00002562  00000-0 -13891-4 0  9993","PERIAPSIS":"348.415","EPHEMERIS_TYPE":"0","ECCENTRICITY":"0.00023890","APOAPSIS":"351.629","ARG_OF_PERICENTER":"20.1683","OBJECT_NAME":"STARLINK-3361","FILE":"3298493","CLASSIFICATION_TYPE":"U"},{"FILE":"3298493","CLASSIFICATION_TYPE":"U","APOAPSIS":"351.234","ARG_OF_PERICENTER":"17.5574","OBJECT_NAME":"STARLINK-3364","ECCENTRICITY":"0.00022780","EPOCH":"2022-02-12T14:00:01.000224","TLE_LINE1":"1 51152U 22005BA  22043.58334491 -.00065980  00000-0 -46889-3 0  9999","EPHEMERIS_TYPE":"0","PERIAPSIS":"348.169","TIME_SYSTEM":"UTC","LAUNCH_DATE":"2022-01-19","REF_FRAME":"TEME","CENTER_NAME":"EARTH","TLE_LINE2":"2 51152  53.2167 153.0035 0002278  17.5574 237.7059 15.73220704  3732","SEMIMAJOR_AXIS":"6727.836","MEAN_ANOMALY":"237.7059","REV_AT_EPOCH":"373","SITE":"AFETR","INCLINATION":"53.2167","PERIOD":"91.532","ELEMENT_SET_NO":"999","MEAN_MOTION":"15.73220704","OBJECT_ID":"2022-005BA","BSTAR":"-0.00046889000000","MEAN_MOTION_DDOT":"0.0000000000000","RCS_SIZE":"MEDIUM","GP_ID":"195822972","MEAN_MOTION_DOT":"-0.00065980","DECAY_DATE":null,"NORAD_CAT_ID":"51152","RA_OF_ASC_NODE":"153.0035","MEAN_ELEMENT_THEORY":"SGP4","COUNTRY_CODE":"US","OBJECT_TYPE":"PAYLOAD"},{"TLE_LINE1":"1 51460U 22010E   22043.91667824 -.00965149  28212-3 -30804-2 0  9996","PERIAPSIS":"292.138","EPHEMERIS_TYPE":"0","EPOCH":"2022-02-12T22:00:00.999936","ECCENTRICITY":"0.00142740","ARG_OF_PERICENTER":"222.0314","OBJECT_NAME":"STARLINK-3167","APOAPSIS":"311.207","FILE":"3299095","CLASSIFICATION_TYPE":"U","MEAN_MOTION":"15.90218630","PERIOD":"90.554","ELEMENT_SET_NO":"999","REV_AT_EPOCH":"269","SITE":"AFETR","INCLINATION":"53.2173","LAUNCH_DATE":"2022-02-03","REF_FRAME":"TEME","CENTER_NAME":"EARTH","TLE_LINE2":"2 51460  53.2173 127.3907 0014274 222.0314  45.4800 15.90218630  2693","SEMIMAJOR_AXIS":"6679.808","MEAN_ANOMALY":"45.4800","TIME_SYSTEM":"UTC","MEAN_MOTION_DDOT":"0.0002821200000","OBJECT_ID":"2022-010E","BSTAR":"-0.00308040000000","COUNTRY_CODE":"US","OBJECT_TYPE":"PAYLOAD","MEAN_ELEMENT_THEORY":"SGP4","RA_OF_ASC_NODE":"127.3907","NORAD_CAT_ID":"51460","DECAY_DATE":null,"GP_ID":"195834944","RCS_SIZE":"MEDIUM","MEAN_MOTION_DOT":"-0.00965149"},{"MEAN_MOTION":"15.88732630","PERIOD":"90.638","ELEMENT_SET_NO":"999","REV_AT_EPOCH":"275","SITE":"AFETR","INCLINATION":"53.2173","REF_FRAME":"TEME","LAUNCH_DATE":"2022-02-03","TLE_LINE2":"2 51461  53.2173 127.4633 0011931 230.9730 356.6081 15.88732630  2751","MEAN_ANOMALY":"356.6081","SEMIMAJOR_AXIS":"6683.972","CENTER_NAME":"EARTH","TIME_SYSTEM":"UTC","TLE_LINE1":"1 51461U 22010F   22043.91667824 -.00954924  27288-3 -32948-2 0  9999","EPHEMERIS_TYPE":"0","PERIAPSIS":"297.862","EPOCH":"2022-02-12T22:00:00.999936","ECCENTRICITY":"0.00119310","ARG_OF_PERICENTER":"230.9730","OBJECT_NAME":"STARLINK-3181","APOAPSIS":"313.812","CLASSIFICATION_TYPE":"U","FILE":"3299095","COUNTRY_CODE":"US","OBJECT_TYPE":"PAYLOAD","MEAN_ELEMENT_THEORY":"SGP4","RA_OF_ASC_NODE":"127.4633","NORAD_CAT_ID":"51461","DECAY_DATE":null,"RCS_SIZE":"MEDIUM","GP_ID":"195834609","MEAN_MOTION_DOT":"-0.00954924","MEAN_MOTION_DDOT":"0.0002728800000","OBJECT_ID":"2022-010F","BSTAR":"-0.00329480000000"},{"BSTAR":"-0.00329720000000","OBJECT_ID":"2022-010G","MEAN_MOTION_DDOT":"0.0002730000000","MEAN_MOTION_DOT":"-0.00955178","RCS_SIZE":"MEDIUM","GP_ID":"195834939","NORAD_CAT_ID":"51462","DECAY_DATE":null,"RA_OF_ASC_NODE":"127.4613","OBJECT_TYPE":"PAYLOAD","COUNTRY_CODE":"US","MEAN_ELEMENT_THEORY":"SGP4","CLASSIFICATION_TYPE":"U","FILE":"3299095","ARG_OF_PERICENTER":"231.8631","OBJECT_NAME":"STARLINK-3166","APOAPSIS":"313.727","ECCENTRICITY":"0.00117790","PERIAPSIS":"297.981","EPHEMERIS_TYPE":"0","TLE_LINE1":"1 51462U 22010G   22043.91667824 -.00955178  27300-3 -32972-2 0  9994","EPOCH":"2022-02-12T22:00:00.999936","TIME_SYSTEM":"UTC","TLE_LINE2":"2 51462  53.2173 127.4613 0011779 231.8631 356.5301 15.88726643  2728","CENTER_NAME":"EARTH","SEMIMAJOR_AXIS":"6683.989","MEAN_ANOMALY":"356.5301","LAUNCH_DATE":"2022-02-03","REF_FRAME":"TEME","INCLINATION":"53.2173","SITE":"AFETR","REV_AT_EPOCH":"272","MEAN_MOTION":"15.88726643","ELEMENT_SET_NO":"999","PERIOD":"90.639"},{"REV_AT_EPOCH":"269","SITE":"AFETR","INCLINATION":"53.2173","MEAN_MOTION":"15.90195209","PERIOD":"90.555","ELEMENT_SET_NO":"999","TIME_SYSTEM":"UTC","REF_FRAME":"TEME","LAUNCH_DATE":"2022-02-03","TLE_LINE2":"2 51463  53.2173 127.3849 0013910 222.5241  47.6593 15.90195209  2690","SEMIMAJOR_AXIS":"6679.873","CENTER_NAME":"EARTH","MEAN_ANOMALY":"47.6593","ECCENTRICITY":"0.00139100","TLE_LINE1":"1 51463U 22010H   22043.91667824 -.00966593  28282-3 -30902-2 0  9999","PERIAPSIS":"292.446","EPHEMERIS_TYPE":"0","EPOCH":"2022-02-12T22:00:00.999936","FILE":"3299050","CLASSIFICATION_TYPE":"U","ARG_OF_PERICENTER":"222.5241","OBJECT_NAME":"STARLINK-3419","APOAPSIS":"311.030","RA_OF_ASC_NODE":"127.3849","COUNTRY_CODE":"US","OBJECT_TYPE":"PAYLOAD","MEAN_ELEMENT_THEORY":"SGP4","GP_ID":"195833618","RCS_SIZE":"MEDIUM","MEAN_MOTION_DOT":"-0.00966593","NORAD_CAT_ID":"51463","DECAY_DATE":null,"MEAN_MOTION_DDOT":"0.0002828200000","OBJECT_ID":"2022-010H","BSTAR":"-0.00309020000000"},{"INCLINATION":"53.2173","SITE":"AFETR","REV_AT_EPOCH":"270","ELEMENT_SET_NO":"999","PERIOD":"90.638","MEAN_MOTION":"15.88743985","TIME_SYSTEM":"UTC","SEMIMAJOR_AXIS":"6683.940","TLE_LINE2":"2 51464  53.2173 127.4596 0011906 231.0316 358.1099 15.88743985  2702","CENTER_NAME":"EARTH","MEAN_ANOMALY":"358.1099","REF_FRAME":"TEME","LAUNCH_DATE":"2022-02-03","ECCENTRICITY":"0.00119060","EPOCH":"2022-02-12T22:00:00.999936","EPHEMERIS_TYPE":"0","PERIAPSIS":"297.847","TLE_LINE1":"1 51464U 22010J   22043.91667824 -.00955295  27310-3 -32943-2 0  9995","FILE":"3299050","CLASSIFICATION_TYPE":"U","APOAPSIS":"313.763","ARG_OF_PERICENTER":"231.0316","OBJECT_NAME":"STARLINK-3189","RA_OF_ASC_NODE":"127.4596","MEAN_ELEMENT_THEORY":"SGP4","OBJECT_TYPE":"PAYLOAD","COUNTRY_CODE":"US","MEAN_MOTION_DOT":"-0.00955295","RCS_SIZE":"MEDIUM","GP_ID":"195834058","DECAY_DATE":null,"NORAD_CAT_ID":"51464","MEAN_MOTION_DDOT":"0.0002731000000","BSTAR":"-0.00329430000000","OBJECT_ID":"2022-010J"},{"OBJECT_ID":"2022-010K","BSTAR":"-0.00329350000000","MEAN_MOTION_DDOT":"0.0002730500000","GP_ID":"195833625","RCS_SIZE":"MEDIUM","MEAN_MOTION_DOT":"-0.00955212","NORAD_CAT_ID":"51465","DECAY_DATE":null,"RA_OF_ASC_NODE":"127.4579","COUNTRY_CODE":"US","OBJECT_TYPE":"PAYLOAD","MEAN_ELEMENT_THEORY":"SGP4","FILE":"3299070","CLASSIFICATION_TYPE":"U","OBJECT_NAME":"STARLINK-3401","ARG_OF_PERICENTER":"228.9903","APOAPSIS":"314.024","ECCENTRICITY":"0.00122760","TLE_LINE1":"1 51465U 22010K   22043.91667824 -.00955212  27305-3 -32935-2 0  9990","PERIAPSIS":"297.614","EPHEMERIS_TYPE":"0","EPOCH":"2022-02-12T22:00:00.999936","TIME_SYSTEM":"UTC","REF_FRAME":"TEME","LAUNCH_DATE":"2022-02-03","TLE_LINE2":"2 51465  53.2173 127.4579 0012276 228.9903   0.9220 15.88739180  2757","CENTER_NAME":"EARTH","SEMIMAJOR_AXIS":"6683.954","MEAN_ANOMALY":"0.9220","REV_AT_EPOCH":"275","INCLINATION":"53.2173","SITE":"AFETR","MEAN_MOTION":"15.88739180","PERIOD":"90.638","ELEMENT_SET_NO":"999"},{"MEAN_ELEMENT_THEORY":"SGP4","COUNTRY_CODE":"US","OBJECT_TYPE":"PAYLOAD","RA_OF_ASC_NODE":"127.3834","DECAY_DATE":null,"NORAD_CAT_ID":"51467","GP_ID":"195834615","RCS_SIZE":"MEDIUM","MEAN_MOTION_DOT":"-0.00966887","MEAN_MOTION_DDOT":"0.0002829700000","OBJECT_ID":"2022-010M","BSTAR":"-0.00309530000000","PERIOD":"90.555","ELEMENT_SET_NO":"999","MEAN_MOTION":"15.90192601","REV_AT_EPOCH":"275","SITE":"AFETR","INCLINATION":"53.2173","LAUNCH_DATE":"2022-02-03","REF_FRAME":"TEME","TLE_LINE2":"2 51467  53.2173 127.3834 0012927 226.9747  43.9287 15.90192601  2753","SEMIMAJOR_AXIS":"6679.880","MEAN_ANOMALY":"43.9287","CENTER_NAME":"EARTH","TIME_SYSTEM":"UTC","EPOCH":"2022-02-12T22:00:00.999936","TLE_LINE1":"1 51467U 22010M   22043.91667824 -.00966887  28297-3 -30953-2 0  9991","EPHEMERIS_TYPE":"0","PERIAPSIS":"293.110","ECCENTRICITY":"0.00129270","APOAPSIS":"310.381","ARG_OF_PERICENTER":"226.9747","OBJECT_NAME":"STARLINK-3178","CLASSIFICATION_TYPE":"U","FILE":"3299101"}];
